NORAD_CAT_ID,OBJECT_NAME,OBJECT_TYPE,EPOCH,MEAN_MOTION,ECCENTRICITY,INCLINATION,RA_OF_ASC_NODE,ARG_OF_PERICENTER,MEAN_ANOMALY,BSTAR,MEAN_MOTION_DOT,MEAN_MOTION_DDOT,TLE_LINE0,TLE_LINE1,TLE_LINE2,SEMIMAJOR_AXIS,PERIOD,APOGEE,PERIGEE,DECAYED
51770.0,STARLINK-3612,PAYLOAD,2024-04-30 09:14:31,15.08834261,0.0001503,53.216,144.1467,105.2514,254.8644,0.00024322,3.584e-05,0.0,0 STARLINK-3612,1 51770U 22017C   24121.38508431  .00003584  00000-0  24322-3 0  9990,2 51770  53.2160 144.1467 0001503 105.2514 254.8644 15.08834261120210,6917.898,95.438,540.803,538.723,0.0
51770.0,STARLINK-3612,PAYLOAD,2024-04-30 18:46:49,15.08841218,0.000149,53.2158,142.3622,105.3619,254.7537,0.00024121,3.553e-05,0.0,0 STARLINK-3612,1 51770U 22017C   24121.78252186  .00003553  00000-0  24121-3 0  9990,2 51770  53.2158 142.3622 0001490 105.3619 254.7537 15.08841218121718,6917.877,95.437,540.772,538.711,0.0
51770.0,STARLINK-3612,PAYLOAD,2024-05-01 07:29:54,15.08845312,0.0001521,53.216,139.9835,105.2892,254.8269,0.00019703,2.85e-05,0.0,0 STARLINK-3612,1 51770U 22017C   24122.31244157  .00002850  00000-0  19703-3 0  9998,2 51770  53.2160 139.9835 0001521 105.2892 254.8269 15.08845312120357,6917.864,95.437,540.781,538.677,0.0
51770.0,STARLINK-3612,PAYLOAD,2024-05-01 18:37:36,15.08851768,0.000151,53.2159,137.9015,105.4271,254.6888,0.00016313,2.31e-05,0.0,0 STARLINK-3612,1 51770U 22017C   24122.77611507  .00002310  00000-0  16313-3 0  9990,2 51770  53.2159 137.9015 0001510 105.4271 254.6888 15.08851768120429,6917.844,95.437,540.754,538.665,0.0
51770.0,STARLINK-3612,PAYLOAD,2024-05-02 05:45:18,15.08846348,0.0001557,53.2163,135.8204,104.9934,255.1231,5.1655e-05,5.34e-06,0.0,0 STARLINK-3612,1 51770U 22017C   24123.23979887  .00000534  00000-0  51655-4 0  9995,2 51770  53.2163 135.8204 0001557 104.9934 255.1231 15.08846348121935,6917.861,95.437,540.803,538.649,0.0
51770.0,STARLINK-3612,PAYLOAD,2024-05-02 10:31:27,15.08847082,0.0001582,53.2161,134.928,103.2816,256.8352,1.2914e-05,-8.2e-07,0.0,0 STARLINK-3612,1 51770U 22017C   24123.43851780 -.00000082  00000-0  12914-4 0  9992,2 51770  53.2161 134.9280 0001582 103.2816 256.8352 15.08847082120528,6917.859,95.437,540.818,538.629,0.0
51770.0,STARLINK-3612,PAYLOAD,2024-05-03 07:11:28,15.08843354,0.0001406,53.2157,131.0615,99.7299,260.3851,9.1393e-07,-2.73e-06,0.0,0 STARLINK-3612,1 51770U 22017C   24124.29963600 -.00000273  00000-0  91393-6 0  9994,2 51770  53.2157 131.0615 0001406  99.7299 260.3851 15.08843354122098,6917.87,95.437,540.708,538.762,0.0
51770.0,STARLINK-3612,PAYLOAD,2024-05-04 05:26:53,15.08833023,0.0001373,53.2159,126.8982,95.9877,264.1271,6.4869e-06,-1.85e-06,0.0,0 STARLINK-3612,1 51770U 22017C   24125.22700234 -.00000185  00000-0  64869-5 0  9999,2 51770  53.2159 126.8982 0001373  95.9877 264.1271 15.08833023122238,6917.902,95.438,540.717,538.817,0.0
51770.0,STARLINK-3612,PAYLOAD,2024-05-05 10:03:49,15.08837828,0.000132,53.2159,121.547,94.2362,265.8781,6.7959e-05,7.94e-06,0.0,0 STARLINK-3612,1 51770U 22017C   24126.41932162  .00000794  00000-0  67959-4 0  9995,2 51770  53.2159 121.5470 0001320  94.2362 265.8781 15.08837828122416,6917.887,95.438,540.665,538.839,0.0
51770.0,STARLINK-3612,PAYLOAD,2024-05-06 06:43:50,15.0884087,0.000132,53.2162,117.6812,88.3688,271.7455,0.0001339,1.844e-05,0.0,0 STARLINK-3612,1 51770U 22017C   24127.28044000  .00001844  00000-0  13390-3 0  9992,2 51770  53.2162 117.6812 0001320  88.3688 271.7455 15.08840870121101,6917.878,95.437,540.656,538.83,0.0
51770.0,STARLINK-3612,PAYLOAD,2024-05-06 16:16:08,15.08847438,0.0001369,53.2165,115.8969,81.7908,278.324,0.00017365,2.477e-05,0.0,0 STARLINK-3612,1 51770U 22017C   24127.67787509  .00002477  00000-0  17365-3 0  9992,2 51770  53.2165 115.8969 0001369  81.7908 278.3240 15.08847438122600,6917.858,95.437,540.67,538.776,0.0
51770.0,STARLINK-3612,PAYLOAD,2024-05-07 04:59:14,15.08852509,0.0001805,53.2183,113.5206,95.5853,264.5345,-0.00012859,-2.335e-05,0.0,0 STARLINK-3612,1 51770U 22017C   24128.20780120 -.00002335  00000-0 -12859-3 0  9992,2 51770  53.2183 113.5206 0001805  95.5853 264.5345 15.08852509122682,6917.842,95.437,540.956,538.458,0.0
51770.0,STARLINK-3612,PAYLOAD,2024-05-07 06:34:37,15.08840485,0.0001525,53.2175,113.2212,87.4758,272.6408,4.0438e-05,3.56e-06,0.0,0 STARLINK-3612,1 51770U 22017C   24128.27404304  .00000356  00000-0  40438-4 0  9990,2 51770  53.2175 113.2212 0001525  87.4758 272.6408 15.08840485122691,6917.879,95.438,540.799,538.689,0.0
51770.0,STARLINK-3612,PAYLOAD,2024-05-08 08:00:47,15.08842766,0.0001508,53.2173,108.4631,82.7362,277.3801,1.8362e-05,4e-08,0.0,0 STARLINK-3612,1 51770U 22017C   24129.33388135  .00000004  00000-0  18362-4 0  9992,2 51770  53.2173 108.4631 0001508  82.7362 277.3801 15.08842766122851,6917.872,95.437,540.78,538.694,0.0
51770.0,STARLINK-3612,PAYLOAD,2024-05-08 15:57:42,15.08848084,0.0001331,53.2166,106.9762,92.4511,267.6634,4.1317e-05,3.7e-06,0.0,0 STARLINK-3612,1 51770U 22017C   24129.66507524  .00000370  00000-0  41317-4 0  9995,2 51770  53.2166 106.9762 0001331  92.4511 267.6634 15.08848084121460,6917.856,95.437,540.641,538.8,0.0
51770.0,STARLINK-3612,PAYLOAD,2024-05-09 07:51:34,15.08797843,0.0001568,53.2177,104.0015,103.1791,256.9376,0.00063255,9.782e-05,0.0,0 STARLINK-3612,1 51770U 22017C   24130.32748761  .00009782  00000-0  63255-3 0  9990,2 51770  53.2177 104.0015 0001568 103.1791 256.9376 15.08797843123006,6918.009,95.44,540.959,538.79,0.0
51770.0,STARLINK-3612,PAYLOAD,2024-05-10 04:31:35,15.08843335,0.0001372,53.2181,100.1338,98.6571,261.4577,2.7905e-05,1.56e-06,0.0,0 STARLINK-3612,1 51770U 22017C   24131.18859961  .00000156  00000-0  27905-4 0  9999,2 51770  53.2181 100.1338 0001372  98.6571 261.4577 15.08843335123139,6917.87,95.437,540.684,538.786,0.0
51770.0,STARLINK-3612,PAYLOAD,2024-05-10 07:42:21,15.0883846,0.0001345,53.2182,99.5392,98.4336,261.6809,8.8021e-05,1.113e-05,0.0,0 STARLINK-3612,1 51770U 22017C   24131.32108062  .00001113  00000-0  88021-4 0  9994,2 51770  53.2182  99.5392 0001345  98.4336 261.6809 15.08838460121713,6917.885,95.438,540.681,538.82,0.0
51770.0,STARLINK-3612,PAYLOAD,2024-05-11 04:22:21,15.08857166,0.0001579,53.2183,95.673,107.2071,252.9094,0.00020295,2.945e-05,0.0,0 STARLINK-3612,1 51770U 22017C   24132.18218839  .00002945  00000-0  20295-3 0  9995,2 51770  53.2183  95.6730 0001579 107.2071 252.9094 15.08857166123288,6917.828,95.436,540.785,538.601,0.0
51770.0,STARLINK-3612,PAYLOAD,2024-05-11 21:51:33,15.08865294,0.0001733,53.2181,92.399,115.4693,244.6479,0.00049301,7.572e-05,0.0,0 STARLINK-3612,1 51770U 22017C   24132.91080650  .00007572  00000-0  49301-3 0  9994,2 51770  53.2181  92.3990 0001733 115.4693 244.6479 15.08865294123399,6917.803,95.436,540.867,538.469,0.0
51770.0,STARLINK-3612,PAYLOAD,2024-05-12 04:13:13,15.08708552,0.0001371,53.2169,91.2133,90.6824,269.4325,-0.0025852,-0.0004105,0.0,0 STARLINK-3612,1 51770U 22017C   24133.17584679 -.00041050  00000-0 -25852-2 0  9998,2 51770  53.2169  91.2133 0001371  90.6824 269.4325 15.08708552123433,6918.282,95.446,541.096,539.199,0.0
51770.0,STARLINK-3612,PAYLOAD,2024-05-12 13:45:31,15.0876356,0.0001342,53.2175,89.4292,90.9416,269.173,-0.0011907,-0.00019148,0.0,0 STARLINK-3612,1 51770U 22017C   24133.57328180 -.00019148  00000-0 -11907-2 0  9994,2 51770  53.2175  89.4292 0001342  90.9416 269.1730 15.08763560122057,6918.114,95.442,540.907,539.051,0.0
51770.0,STARLINK-3612,PAYLOAD,2024-05-13 04:04:00,15.08801611,0.0001263,53.2168,86.754,85.5315,274.5822,-0.00025758,-4.38e-05,0.0,0 STARLINK-3612,1 51770U 22017C   24134.16944520 -.00004380  00000-0 -25758-3 0  9994,2 51770  53.2168  86.7540 0001263  85.5315 274.5822 15.08801611123586,6917.998,95.44,540.736,538.989,0.0
51770.0,STARLINK-3612,PAYLOAD,2024-05-13 13:36:18,15.08825421,0.0001454,53.2175,84.9707,93.4675,266.6484,0.00040364,6.139e-05,0.0,0 STARLINK-3612,1 51770U 22017C   24134.56688399  .00006139  00000-0  40364-3 0  9999,2 51770  53.2175  84.9707 0001454  93.4675 266.6484 15.08825421122207,6917.925,95.438,540.796,538.784,0.0
51770.0,STARLINK-3612,PAYLOAD,2024-05-14 03:54:46,15.08844041,0.000138,53.2163,82.2888,81.817,278.2979,0.00083454,0.0001302,0.0,0 STARLINK-3612,1 51770U 22017C   24135.16303575  .00013020  00000-0  83454-3 0  9990,2 51770  53.2163  82.2888 0001380  81.8170 278.2979 15.08844041123730,6917.868,95.437,540.688,538.778,0.0
51770.0,STARLINK-3612,PAYLOAD,2024-05-14 13:27:05,15.08851066,0.000151,53.2173,80.506,73.1233,286.9925,0.0016002,0.00025279,0.0,0 STARLINK-3612,1 51770U 22017C   24135.56048134  .00025279  00000-0  16002-2 0  9994,2 51770  53.2173  80.5060 0001510  73.1233 286.9925 15.08851066122352,6917.847,95.437,540.756,538.667,0.0
51770.0,STARLINK-3612,PAYLOAD,2024-05-15 05:20:55,15.08871254,0.0001957,53.2186,77.5351,80.6578,279.4636,0.00040953,6.241e-05,0.0,0 STARLINK-3612,1 51770U 22017C   24136.22285920  .00006241  00000-0  40953-3 0  9995,2 51770  53.2186  77.5351 0001957  80.6578 279.4636 15.08871254123892,6917.785,95.436,541.004,538.296,0.0
51770.0,STARLINK-3612,PAYLOAD,2024-05-16 05:11:40,15.08863498,0.0001477,53.2163,73.0764,108.8758,251.2395,-4.3275e-05,-9.77e-06,0.0,0 STARLINK-3612,1 51770U 22017C   24137.21644467 -.00000977  00000-0 -43275-4 0  9993,2 51770  53.2163  73.0764 0001477 108.8758 251.2395 15.08863498124045,6917.809,95.436,540.695,538.652,0.0
51770.0,STARLINK-3612,PAYLOAD,2024-05-16 13:08:35,15.0887347,0.0002098,53.2177,71.5891,88.5653,271.5579,0.00023108,3.395e-05,0.0,0 STARLINK-3612,1 51770U 22017C   24137.54763741  .00003395  00000-0  23108-3 0  9993,2 51770  53.2177  71.5891 0002098  88.5653 271.5579 15.08873470122657,6917.778,95.435,541.094,538.192,0.0
51770.0,STARLINK-3612,PAYLOAD,2024-05-17 01:51:41,15.08839828,0.0001582,53.2168,69.2095,97.3574,262.7598,-0.00019949,-3.462e-05,0.0,0 STARLINK-3612,1 51770U 22017C   24138.07756291 -.00003462  00000-0 -19949-3 0  9999,2 51770  53.2168  69.2095 0001582  97.3574 262.7598 15.08839828124175,6917.881,95.438,540.84,538.652,0.0
